CCSDS_OMM_VERS = 2.0
CREATION_DATE  = 
ORIGINATOR     = 

OBJECT_NAME    = STARLINK-36362
OBJECT_ID      = 2026-005W
CENTER_NAME    = EARTH
REF_FRAME      = TEME
TIME_SYSTEM    = UTC
MEAN_ELEMENT_THEORY = SGP/SGP4

EPOCH          = 2026-01-30T06:00:02.000160
MEAN_MOTION    = 15.60960100
ECCENTRICITY   = .00010771
INCLINATION    = 43.0006
RA_OF_ASC_NODE = 99.1101
ARG_OF_PERICENTER = 260.7561
MEAN_ANOMALY   = 7.0242

EPHEMERIS_TYPE = 0
CLASSIFICATION_TYPE = U
NORAD_CAT_ID   = 67424
ELEMENT_SET_NO = 999
REV_AT_EPOCH   = 400
BSTAR          = -.26627788E-1
MEAN_MOTION_DOT = -.2013309E-1
MEAN_MOTION_DDOT = 0

CCSDS_OMM_VERS = 2.0
CREATION_DATE  = 
ORIGINATOR     = 

OBJECT_NAME    = STARLINK-36447
OBJECT_ID      = 2026-005X
CENTER_NAME    = EARTH
REF_FRAME      = TEME
TIME_SYSTEM    = UTC
MEAN_ELEMENT_THEORY = SGP/SGP4

EPOCH          = 2026-01-30T06:00:02.000160
MEAN_MOTION    = 15.60964451
ECCENTRICITY   = .00012536
INCLINATION    = 43.0004
RA_OF_ASC_NODE = 99.1041
ARG_OF_PERICENTER = 263.2186
MEAN_ANOMALY   = 6.4756

EPHEMERIS_TYPE = 0
CLASSIFICATION_TYPE = U
NORAD_CAT_ID   = 67425
ELEMENT_SET_NO = 999
REV_AT_EPOCH   = 400
BSTAR          = -.26689249E-1
MEAN_MOTION_DOT = -.2017803E-1
MEAN_MOTION_DDOT = 0

CCSDS_OMM_VERS = 2.0
CREATION_DATE  = 
ORIGINATOR     = 

OBJECT_NAME    = STARLINK-36146
OBJECT_ID      = 2026-005Y
CENTER_NAME    = EARTH
REF_FRAME      = TEME
TIME_SYSTEM    = UTC
MEAN_ELEMENT_THEORY = SGP/SGP4

EPOCH          = 2026-01-30T06:00:02.000160
MEAN_MOTION    = 15.60962668
ECCENTRICITY   = .00010917
INCLINATION    = 43.0003
RA_OF_ASC_NODE = 99.1001
ARG_OF_PERICENTER = 261.6098
MEAN_ANOMALY   = 10.0021

EPHEMERIS_TYPE = 0
CLASSIFICATION_TYPE = U
NORAD_CAT_ID   = 67426
ELEMENT_SET_NO = 999
REV_AT_EPOCH   = 395
BSTAR          = -.26658575E-1
MEAN_MOTION_DOT = -.2015533E-1
MEAN_MOTION_DDOT = 0

CCSDS_OMM_VERS = 2.0
CREATION_DATE  = 
ORIGINATOR     = 

OBJECT_NAME    = STARLINK-36459
OBJECT_ID      = 2026-005Z
CENTER_NAME    = EARTH
REF_FRAME      = TEME
TIME_SYSTEM    = UTC
MEAN_ELEMENT_THEORY = SGP/SGP4

EPOCH          = 2026-01-30T06:00:02.000160
MEAN_MOTION    = 15.60963030
ECCENTRICITY   = .00012614
INCLINATION    = 43.0003
RA_OF_ASC_NODE = 99.0944
ARG_OF_PERICENTER = 265.2829
MEAN_ANOMALY   = 8.2449

EPHEMERIS_TYPE = 0
CLASSIFICATION_TYPE = U
NORAD_CAT_ID   = 67427
ELEMENT_SET_NO = 999
REV_AT_EPOCH   = 392
BSTAR          = -.2664372E-1
MEAN_MOTION_DOT = -.20147E-1
MEAN_MOTION_DDOT = 0

CCSDS_OMM_VERS = 2.0
CREATION_DATE  = 
ORIGINATOR     = 

OBJECT_NAME    = STARLINK-36464
OBJECT_ID      = 2026-005AA
CENTER_NAME    = EARTH
REF_FRAME      = TEME
TIME_SYSTEM    = UTC
MEAN_ELEMENT_THEORY = SGP/SGP4

EPOCH          = 2026-01-30T06:00:02.000160
MEAN_MOTION    = 15.60962288
ECCENTRICITY   = .00012922
INCLINATION    = 43.0003
RA_OF_ASC_NODE = 99.0851
ARG_OF_PERICENTER = 265.8374
MEAN_ANOMALY   = 11.5269

EPHEMERIS_TYPE = 0
CLASSIFICATION_TYPE = U
NORAD_CAT_ID   = 67428
ELEMENT_SET_NO = 999
REV_AT_EPOCH   = 400
BSTAR          = -.26664916E-1
MEAN_MOTION_DOT = -.2016074E-1
MEAN_MOTION_DDOT = 0

CCSDS_OMM_VERS = 2.0
CREATION_DATE  = 
ORIGINATOR     = 

OBJECT_NAME    = STARLINK-36513
OBJECT_ID      = 2026-005AB
CENTER_NAME    = EARTH
REF_FRAME      = TEME
TIME_SYSTEM    = UTC
MEAN_ELEMENT_THEORY = SGP/SGP4

EPOCH          = 2026-01-30T06:00:02.000160
MEAN_MOTION    = 15.60964032
ECCENTRICITY   = .00012963
INCLINATION    = 43.0006
RA_OF_ASC_NODE = 99.0795
ARG_OF_PERICENTER = 265.4184
MEAN_ANOMALY   = 13.8612

EPHEMERIS_TYPE = 0
CLASSIFICATION_TYPE = U
NORAD_CAT_ID   = 67429
ELEMENT_SET_NO = 999
REV_AT_EPOCH   = 400
BSTAR          = -.26683798E-1
MEAN_MOTION_DOT = -.2017445E-1
MEAN_MOTION_DDOT = 0

CCSDS_OMM_VERS = 2.0
CREATION_DATE  = 
ORIGINATOR     = 

OBJECT_NAME    = STARLINK-36515
OBJECT_ID      = 2026-005AC
CENTER_NAME    = EARTH
REF_FRAME      = TEME
TIME_SYSTEM    = UTC
MEAN_ELEMENT_THEORY = SGP/SGP4

EPOCH          = 2026-01-30T06:00:02.000160
MEAN_MOTION    = 15.60959507
ECCENTRICITY   = .00011736
INCLINATION    = 43.0003
RA_OF_ASC_NODE = 99.0895
ARG_OF_PERICENTER = 259.4740
MEAN_ANOMALY   = 15.9754

EPHEMERIS_TYPE = 0
CLASSIFICATION_TYPE = U
NORAD_CAT_ID   = 67430
ELEMENT_SET_NO = 999
REV_AT_EPOCH   = 392
BSTAR          = -.26611148E-1
MEAN_MOTION_DOT = -.2012238E-1
MEAN_MOTION_DDOT = 0

CCSDS_OMM_VERS = 2.0
CREATION_DATE  = 
ORIGINATOR     = 

OBJECT_NAME    = STARLINK-36443
OBJECT_ID      = 2026-005AD
CENTER_NAME    = EARTH
REF_FRAME      = TEME
TIME_SYSTEM    = UTC
MEAN_ELEMENT_THEORY = SGP/SGP4

EPOCH          = 2026-01-30T06:00:02.000160
MEAN_MOTION    = 15.60962788
ECCENTRICITY   = .00012806
INCLINATION    = 43.0006
RA_OF_ASC_NODE = 99.0742
ARG_OF_PERICENTER = 264.5004
MEAN_ANOMALY   = 16.6968

EPHEMERIS_TYPE = 0
CLASSIFICATION_TYPE = U
NORAD_CAT_ID   = 67431
ELEMENT_SET_NO = 999
REV_AT_EPOCH   = 395
BSTAR          = -.26656445E-1
MEAN_MOTION_DOT = -.2015539E-1
MEAN_MOTION_DDOT = 0

CCSDS_OMM_VERS = 2.0
CREATION_DATE  = 
ORIGINATOR     = 

OBJECT_NAME    = STARLINK-36460
OBJECT_ID      = 2026-005AE
CENTER_NAME    = EARTH
REF_FRAME      = TEME
TIME_SYSTEM    = UTC
MEAN_ELEMENT_THEORY = SGP/SGP4

EPOCH          = 2026-01-30T06:00:02.000160
MEAN_MOTION    = 15.60963629
ECCENTRICITY   = .00011942
INCLINATION    = 43.0004
RA_OF_ASC_NODE = 99.0696
ARG_OF_PERICENTER = 265.4562
MEAN_ANOMALY   = 17.6579

EPHEMERIS_TYPE = 0
CLASSIFICATION_TYPE = U
NORAD_CAT_ID   = 67432
ELEMENT_SET_NO = 999
REV_AT_EPOCH   = 400
BSTAR          = -.2667887E-1
MEAN_MOTION_DOT = -.2017016E-1
MEAN_MOTION_DDOT = 0

CCSDS_OMM_VERS = 2.0
CREATION_DATE  = 
ORIGINATOR     = 

OBJECT_NAME    = YAOGAN-50 01
OBJECT_ID      = 2026-006A
CENTER_NAME    = EARTH
REF_FRAME      = TEME
TIME_SYSTEM    = UTC
MEAN_ELEMENT_THEORY = SGP/SGP4

EPOCH          = 2026-01-30T06:54:48.618144
MEAN_MOTION    = 13.83252339
ECCENTRICITY   = .00006614
INCLINATION    = 142.0313
RA_OF_ASC_NODE = 269.3737
ARG_OF_PERICENTER = 269.4684
MEAN_ANOMALY   = 90.5959

EPHEMERIS_TYPE = 0
CLASSIFICATION_TYPE = U
NORAD_CAT_ID   = 67433
ELEMENT_SET_NO = 999
REV_AT_EPOCH   = 233
BSTAR          = .1702522E-3
MEAN_MOTION_DOT = .377E-5
MEAN_MOTION_DDOT = 0

CCSDS_OMM_VERS = 2.0
CREATION_DATE  = 
ORIGINATOR     = 

OBJECT_NAME    = CZ-6A R/B
OBJECT_ID      = 2026-006B
CENTER_NAME    = EARTH
REF_FRAME      = TEME
TIME_SYSTEM    = UTC
MEAN_ELEMENT_THEORY = SGP/SGP4

EPOCH          = 2026-01-30T05:50:22.003008
MEAN_MOTION    = 14.62285099
ECCENTRICITY   = .02030127
INCLINATION    = 142.0435
RA_OF_ASC_NODE = 279.1476
ARG_OF_PERICENTER = 203.9517
MEAN_ANOMALY   = 155.1647

EPHEMERIS_TYPE = 0
CLASSIFICATION_TYPE = U
NORAD_CAT_ID   = 67434
ELEMENT_SET_NO = 999
REV_AT_EPOCH   = 244
BSTAR          = .19477025E-3
MEAN_MOTION_DOT = .1667E-4
MEAN_MOTION_DDOT = 0

CCSDS_OMM_VERS = 2.0
CREATION_DATE  = 
ORIGINATOR     = 

OBJECT_NAME    = HULIANWANG DIGUI-137
OBJECT_ID      = 2026-007A
CENTER_NAME    = EARTH
REF_FRAME      = TEME
TIME_SYSTEM    = UTC
MEAN_ELEMENT_THEORY = SGP/SGP4

EPOCH          = 2026-01-30T05:19:58.964736
MEAN_MOTION    = 13.85102891
ECCENTRICITY   = .00002753
INCLINATION    = 50.0059
RA_OF_ASC_NODE = 228.4826
ARG_OF_PERICENTER = 287.5505
MEAN_ANOMALY   = 72.5362

EPHEMERIS_TYPE = 0
CLASSIFICATION_TYPE = U
NORAD_CAT_ID   = 67435
ELEMENT_SET_NO = 999
REV_AT_EPOCH   = 231
BSTAR          = .18119798E-3
MEAN_MOTION_DOT = .62E-6
MEAN_MOTION_DDOT = 0

