STARLINK-36362          
1 67424U 26005W   26030.25002315 -.02013309  00000+0 -26628-1 0  9999
2 67424  43.0006  99.1101 0001077 260.7561   7.0242 15.60960100  4008
STARLINK-36447          
1 67425U 26005X   26030.25002315 -.02017803  00000+0 -26689-1 0  9990
2 67425  43.0004  99.1041 0001253 263.2186   6.4756 15.60964451  4003
STARLINK-36146          
1 67426U 26005Y   26030.25002315 -.02015533  00000+0 -26659-1 0  9996
2 67426  43.0003  99.1001 0001091 261.6098  10.0021 15.60962668  3950
STARLINK-36459          
1 67427U 26005Z   26030.25002315 -.02014700  00000+0 -26644-1 0  9996
2 67427  43.0003  99.0944 0001261 265.2829   8.2449 15.60963030  3921
STARLINK-36464          
1 67428U 26005AA  26030.25002315 -.02016074  00000+0 -26665-1 0  9996
2 67428  43.0003  99.0851 0001292 265.8374  11.5269 15.60962288  4005
STARLINK-36513          
1 67429U 26005AB  26030.25002315 -.02017445  00000+0 -26684-1 0  9991
2 67429  43.0006  99.0795 0001296 265.4184  13.8612 15.60964032  4001
STARLINK-36515          
1 67430U 26005AC  26030.25002315 -.02012238  00000+0 -26611-1 0  9998
2 67430  43.0003  99.0895 0001173 259.4740  15.9754 15.60959507  3927
STARLINK-36443          
1 67431U 26005AD  26030.25002315 -.02015539  00000+0 -26656-1 0  9995
2 67431  43.0006  99.0742 0001280 264.5004  16.6968 15.60962788  3954
STARLINK-36460          
1 67432U 26005AE  26030.25002315 -.02017016  00000+0 -26679-1 0  9993
2 67432  43.0004  99.0696 0001194 265.4562  17.6579 15.60963629  4005
YAOGAN-50 01            
1 67433U 26006A   26030.28806271  .00000377  00000+0  17025-3 0  9996
2 67433 142.0313 269.3737 0000661 269.4684  90.5959 13.83252339  2332
CZ-6A R/B               
1 67434U 26006B   26030.24331022  .00001667  00000+0  19477-3 0  9996
2 67434 142.0435 279.1476 0203012 203.9517 155.1647 14.62285099  2441
HULIANWANG DIGUI-137    
1 67435U 26007A   26030.22221024  .00000062  00000+0  18120-3 0  9998
2 67435  50.0059 228.4826 0000275 287.5505  72.5362 13.85102891  2313
